{
  "type": "FeatureCollection",
  "features": [
    {
      "type": "Feature",
      "properties": {
        "norad_id": 33924,
        "name": "COSMOS 2251 DEB",
        "group": "cosmos-2251-debris",
        "lat": 26.216205185476586,
        "lon": 90.88212814889421,
        "alt_km": 1356.8175859741514,
        "timestamp": "2025-12-07T05:38:10.296612+00:00",
        "meta_object_name": "COSMOS 2251 DEB",
        "meta_object_id": "1993-036ED",
        "meta_epoch": "2025-12-06T12:51:27.421056",
        "meta_mean_motion": 13.50206516,
        "meta_eccentricity": 0.04040763,
        "meta_inclination": 73.9144,
        "meta_ra_of_asc_node": 280.1734,
        "meta_arg_of_pericenter": 316.719,
        "meta_mean_anomaly": 40.2811,
        "meta_ephemeris_type": 0,
        "meta_classification_type": "U",
        "meta_norad_cat_id": 33924,
        "meta_element_set_no": 999,
        "meta_rev_at_epoch": 82655,
        "meta_bstar": 0.0019721493,
        "meta_mean_motion_dot": 2.068e-05,
        "meta_mean_motion_ddot": 0,
        "tle_line1": "1 33924U 93036ED  25340.53573404  .00002068  00000+0  19721-2 0  9994",
        "tle_line2": "2 33924  73.9144 280.1734 0404076 316.7190  40.2811 13.50206516826555"
      },
      "geometry": {
        "type": "Point",
        "coordinates": [
          90.88212814889421,
          26.216205185476586
        ]
      }
    },
    {
      "type": "Feature",
      "properties": {
        "norad_id": 33928,
        "name": "COSMOS 2251 DEB",
        "group": "cosmos-2251-debris",
        "lat": -54.114327303151015,
        "lon": 39.44337153566859,
        "alt_km": 716.1175216402316,
        "timestamp": "2025-12-07T05:38:10.296622+00:00",
        "meta_object_name": "COSMOS 2251 DEB",
        "meta_object_id": "1993-036EH",
        "meta_epoch": "2025-12-06T14:58:08.864544",
        "meta_mean_motion": 14.47387211,
        "meta_eccentricity": 0.00611612,
        "meta_inclination": 73.926,
        "meta_ra_of_asc_node": 64.0794,
        "meta_arg_of_pericenter": 359.531,
        "meta_mean_anomaly": 0.578,
        "meta_ephemeris_type": 0,
        "meta_classification_type": "U",
        "meta_norad_cat_id": 33928,
        "meta_element_set_no": 999,
        "meta_rev_at_epoch": 88556,
        "meta_bstar": 0.0004601036,
        "meta_mean_motion_dot": 1.698e-05,
        "meta_mean_motion_ddot": 0,
        "tle_line1": "1 33928U 93036EH  25340.62371371  .00001698  00000+0  46010-3 0  9997",
        "tle_line2": "2 33928  73.9260  64.0794 0061161 359.5310   0.5780 14.47387211885565"
      },
      "geometry": {
        "type": "Point",
        "coordinates": [
          39.44337153566859,
          -54.114327303151015
        ]
      }
    },
    {
      "type": "Feature",
      "properties": {
        "norad_id": 33932,
        "name": "COSMOS 2251 DEB",
        "group": "cosmos-2251-debris",
        "lat": -65.98270253821023,
        "lon": -173.95091402277384,
        "alt_km": 791.6270209009372,
        "timestamp": "2025-12-07T05:38:10.296632+00:00",
        "meta_object_name": "COSMOS 2251 DEB",
        "meta_object_id": "1993-036EM",
        "meta_epoch": "2025-12-06T00:06:00.848736",
        "meta_mean_motion": 14.38726727,
        "meta_eccentricity": 0.0034989,
        "meta_inclination": 74.0342,
        "meta_ra_of_asc_node": 328.3404,
        "meta_arg_of_pericenter": 46.4275,
        "meta_mean_anomaly": 313.9774,
        "meta_ephemeris_type": 0,
        "meta_classification_type": "U",
        "meta_norad_cat_id": 33932,
        "meta_element_set_no": 999,
        "meta_rev_at_epoch": 87901,
        "meta_bstar": 0.00085324886,
        "meta_mean_motion_dot": 2.612e-05,
        "meta_mean_motion_ddot": 0,
        "tle_line1": "1 33932U 93036EM  25340.00417649  .00002612  00000+0  85325-3 0  9992",
        "tle_line2": "2 33932  74.0342 328.3404 0034989  46.4275 313.9774 14.38726727879013"
      },
      "geometry": {
        "type": "Point",
        "coordinates": [
          -173.95091402277384,
          -65.98270253821023
        ]
      }
    },
    {
      "type": "Feature",
      "properties": {
        "norad_id": 33933,
        "name": "COSMOS 2251 DEB",
        "group": "cosmos-2251-debris",
        "lat": -24.37682003762242,
        "lon": -102.40412676553852,
        "alt_km": 814.179436207005,
        "timestamp": "2025-12-07T05:38:10.296643+00:00",
        "meta_object_name": "COSMOS 2251 DEB",
        "meta_object_id": "1993-036EN",
        "meta_epoch": "2025-12-06T15:17:20.096160",
        "meta_mean_motion": 14.3347359,
        "meta_eccentricity": 0.00707811,
        "meta_inclination": 74.0893,
        "meta_ra_of_asc_node": 71.2585,
        "meta_arg_of_pericenter": 81.4933,
        "meta_mean_anomaly": 279.4232,
        "meta_ephemeris_type": 0,
        "meta_classification_type": "U",
        "meta_norad_cat_id": 33933,
        "meta_element_set_no": 999,
        "meta_rev_at_epoch": 87697,
        "meta_bstar": 0.0005686256,
        "meta_mean_motion_dot": 1.591e-05,
        "meta_mean_motion_ddot": 0,
        "tle_line1": "1 33933U 93036EN  25340.63703815  .00001591  00000+0  56863-3 0  9995",
        "tle_line2": "2 33933  74.0893  71.2585 0070781  81.4933 279.4232 14.33473590876978"
      },
      "geometry": {
        "type": "Point",
        "coordinates": [
          -102.40412676553852,
          -24.37682003762242
        ]
      }
    },
    {
      "type": "Feature",
      "properties": {
        "norad_id": 33934,
        "name": "COSMOS 2251 DEB",
        "group": "cosmos-2251-debris",
        "lat": 5.294593096462532,
        "lon": -70.46010384531084,
        "alt_km": 692.6124460175779,
        "timestamp": "2025-12-07T05:38:10.296652+00:00",
        "meta_object_name": "COSMOS 2251 DEB",
        "meta_object_id": "1993-036EP",
        "meta_epoch": "2025-12-06T15:40:24.103200",
        "meta_mean_motion": 14.59023409,
        "meta_eccentricity": 0.00158984,
        "meta_inclination": 74.0381,
        "meta_ra_of_asc_node": 112.1676,
        "meta_arg_of_pericenter": 235.8063,
        "meta_mean_anomaly": 124.1596,
        "meta_ephemeris_type": 0,
        "meta_classification_type": "U",
        "meta_norad_cat_id": 33934,
        "meta_element_set_no": 999,
        "meta_rev_at_epoch": 88650,
        "meta_bstar": 0.0017639657,
        "meta_mean_motion_dot": 8.282e-05,
        "meta_mean_motion_ddot": 0,
        "tle_line1": "1 33934U 93036EP  25340.65305675  .00008282  00000+0  17640-2 0  9993",
        "tle_line2": "2 33934  74.0381 112.1676 0015898 235.8063 124.1596 14.59023409886501"
      },
      "geometry": {
        "type": "Point",
        "coordinates": [
          -70.46010384531084,
          5.294593096462532
        ]
      }
    },
    {
      "type": "Feature",
      "properties": {
        "norad_id": 33936,
        "name": "COSMOS 2251 DEB",
        "group": "cosmos-2251-debris",
        "lat": 70.67100365530904,
        "lon": 102.79033316808541,
        "alt_km": 696.6898557391423,
        "timestamp": "2025-12-07T05:38:10.296662+00:00",
        "meta_object_name": "COSMOS 2251 DEB",
        "meta_object_id": "1993-036ER",
        "meta_epoch": "2025-12-06T14:28:31.979424",
        "meta_mean_motion": 14.60208621,
        "meta_eccentricity": 0.00279557,
        "meta_inclination": 74.0193,
        "meta_ra_of_asc_node": 49.2122,
        "meta_arg_of_pericenter": 205.739,
        "meta_mean_anomaly": 154.2387,
        "meta_ephemeris_type": 0,
        "meta_classification_type": "U",
        "meta_norad_cat_id": 33936,
        "meta_element_set_no": 999,
        "meta_rev_at_epoch": 88800,
        "meta_bstar": 0.0012947284,
        "meta_mean_motion_dot": 6.251e-05,
        "meta_mean_motion_ddot": 0,
        "tle_line1": "1 33936U 93036ER  25340.60314791  .00006251  00000+0  12947-2 0  9998",
        "tle_line2": "2 33936  74.0193  49.2122 0027955 205.7390 154.2387 14.60208621888008"
      },
      "geometry": {
        "type": "Point",
        "coordinates": [
          102.79033316808541,
          70.67100365530904
        ]
      }
    },
    {
      "type": "Feature",
      "properties": {
        "norad_id": 33938,
        "name": "COSMOS 2251 DEB",
        "group": "cosmos-2251-debris",
        "lat": -18.63293466533,
        "lon": 42.988768929918024,
        "alt_km": 743.0888070184719,
        "timestamp": "2025-12-07T05:38:10.296672+00:00",
        "meta_object_name": "COSMOS 2251 DEB",
        "meta_object_id": "1993-036ET",
        "meta_epoch": "2025-12-06T15:34:55.070400",
        "meta_mean_motion": 14.46765879,
        "meta_eccentricity": 0.00168871,
        "meta_inclination": 74.0458,
        "meta_ra_of_asc_node": 218.5465,
        "meta_arg_of_pericenter": 301.0349,
        "meta_mean_anomaly": 89.7111,
        "meta_ephemeris_type": 0,
        "meta_classification_type": "U",
        "meta_norad_cat_id": 33938,
        "meta_element_set_no": 999,
        "meta_rev_at_epoch": 88312,
        "meta_bstar": 0.0008633006,
        "meta_mean_motion_dot": 3.104e-05,
        "meta_mean_motion_ddot": 0,
        "tle_line1": "1 33938U 93036ET  25340.64924850  .00003104  00000+0  86330-3 0  9999",
        "tle_line2": "2 33938  74.0458 218.5465 0016887 301.0349  89.7111 14.46765879883123"
      },
      "geometry": {
        "type": "Point",
        "coordinates": [
          42.988768929918024,
          -18.63293466533
        ]
      }
    }
  ]
}